0 ARIANE 40 DEB
1 35955U 93061K   13282.17772250  .00004945  00000-0  16347-2 0  1013
2 35955 098.6811 248.0723 0006504 225.7763 268.9141 14.38423849207887
0 ARIANE 40 DEB
1 35955U 93061K   13283.36439433  .00005251  00000-0  17344-2 0  1028
2 35955 098.6810 249.2719 0006476 221.8296 294.3206 14.38432489208055
0 ARIANE 40 DEB
1 35955U 93061K   13285.84917971  .00004912  00000-0  16226-2 0  1044
2 35955 098.6804 251.7844 0006501 212.0895 203.8874 14.38455366208416
0 ARIANE 40 DEB
1 35955U 93061K   13287.18339593  .00005534  00000-0  18257-2 0  1059
2 35955 098.6805 253.1333 0006564 207.0944 274.1125 14.38466623208603
0 ARIANE 40 DEB
1 35955U 93061K   13288.50435007  .00007689  00000-0  25291-2 0  1063
2 35955 098.6805 254.4689 0006649 202.1946 275.6667 14.38486108208790
0 ARIANE 40 DEB
1 35955U 93061K   13289.60705556  .00007529  00000-0  24763-2 0  1071
2 35955 098.6808 255.5839 0006706 197.9805 227.0474 14.38495250208954
0 ARIANE 40 DEB
1 35955U 93061K   13290.73101047  .00007024  00000-0  23108-2 0  1085
2 35955 098.6811 256.7202 0006785 193.9778 288.2346 14.38508534209113
0 ARIANE 40 DEB
1 35955U 93061K   13292.18104523  .00005517  00000-0  18179-2 0  1096
2 35955 098.6817 258.1863 0006842 188.5764 238.5679 14.38523101209324
0 ARIANE 40 DEB
1 35955U 93061K   13293.51262834  .00006509  00000-0  21412-2 0  1102
2 35955 098.6820 259.5329 0006963 183.8440 295.2348 14.38539233209510
0 ARIANE 40 DEB
1 35955U 93061K   13294.61401307  .00007950  00000-0  26109-2 0  1114
2 35955 098.6823 260.6466 0007032 179.9825 239.6418 14.38549425209670
0 ARIANE 40 DEB
1 35955U 93061K   13296.15753506  .00007312  00000-0  24019-2 0  1127
2 35955 098.6825 262.2076 0007150 174.9060 313.7504 14.38568649209897
